start=new Date('2022-06-17T00:00:00.000Z').valueOf();
sats=[{"REV_AT_EPOCH":"2468","MEAN_MOTION_DOT":"0.00001283","RA_OF_ASC_NODE":"166.5272","INCLINATION":"53.2174","SITE":"AFETR","RCS_SIZE":"LARGE","TLE_LINE1":"1 50825U 22001Y   22166.98988054  .00001283  00000-0  98678-4 0  9999","LAUNCH_DATE":"2022-01-06","TIME_SYSTEM":"UTC","DECAY_DATE":null,"ELEMENT_SET_NO":"999","CENTER_NAME":"EARTH","SEMIMAJOR_AXIS":"6917.863","CLASSIFICATION_TYPE":"U","OBJECT_NAME":"STARLINK-3332","BSTAR":"0.00009867800000","EPOCH":"2022-06-15T23:45:25.678656","PERIOD":"95.437","COUNTRY_CODE":"US","FILE":"3497002","APOAPSIS":"541.457","MEAN_MOTION":"15.08845684","ECCENTRICITY":"0.00024990","MEAN_MOTION_DDOT":"0.0000000000000","TLE_LINE2":"2 50825  53.2174 166.5272 0002499  42.8090 317.3096 15.08845684 24688","MEAN_ANOMALY":"317.3096","ARG_OF_PERICENTER":"42.8090","MEAN_ELEMENT_THEORY":"SGP4","EPHEMERIS_TYPE":"0","NORAD_CAT_ID":"50825","REF_FRAME":"TEME","OBJECT_TYPE":"PAYLOAD","PERIAPSIS":"537.999","OBJECT_ID":"2022-001Y","GP_ID":"206289959"},{"COUNTRY_CODE":"US","FILE":"3496794","APOAPSIS":"541.522","EPOCH":"2022-06-15T08:55:09.561216","PERIOD":"95.437","BSTAR":"0.00003658000000","MEAN_MOTION":"15.08845017","TLE_LINE2":"2 50826  53.2159 169.2803 0002590  43.6158 316.5039 15.08845017 24596","MEAN_MOTION_DDOT":"0.0000000000000","ECCENTRICITY":"0.00025900","OBJECT_ID":"2022-001Z","PERIAPSIS":"537.938","GP_ID":"206208765","REF_FRAME":"TEME","OBJECT_TYPE":"PAYLOAD","EPHEMERIS_TYPE":"0","NORAD_CAT_ID":"50826","ARG_OF_PERICENTER":"43.6158","MEAN_ANOMALY":"316.5039","MEAN_ELEMENT_THEORY":"SGP4","INCLINATION":"53.2159","RA_OF_ASC_NODE":"169.2803","REV_AT_EPOCH":"2459","MEAN_MOTION_DOT":"0.00000294","RCS_SIZE":"LARGE","SITE":"AFETR","DECAY_DATE":null,"ELEMENT_SET_NO":"999","LAUNCH_DATE":"2022-01-06","TIME_SYSTEM":"UTC","TLE_LINE1":"1 50826U 22001Z   22166.37163844  .00000294  00000-0  36580-4 0  9990","OBJECT_NAME":"STARLINK-3337","CLASSIFICATION_TYPE":"U","SEMIMAJOR_AXIS":"6917.865","CENTER_NAME":"EARTH"},{"RCS_SIZE":"LARGE","SITE":"AFETR","INCLINATION":"53.2170","RA_OF_ASC_NODE":"167.6679","MEAN_MOTION_DOT":"-0.00000079","REV_AT_EPOCH":"2464","OBJECT_NAME":"STARLINK-3329","CLASSIFICATION_TYPE":"U","SEMIMAJOR_AXIS":"6917.872","CENTER_NAME":"EARTH","DECAY_DATE":null,"ELEMENT_SET_NO":"999","TIME_SYSTEM":"UTC","LAUNCH_DATE":"2022-01-06","TLE_LINE1":"1 50827U 22001AA  22166.73596435 -.00000079  00000-0  13159-4 0  9996","MEAN_MOTION":"15.08842628","COUNTRY_CODE":"US","APOAPSIS":"541.367","FILE":"3496999","EPOCH":"2022-06-15T17:39:47.319840","PERIOD":"95.437","BSTAR":"0.00001315900000","OBJECT_ID":"2022-001AA","PERIAPSIS":"538.108","GP_ID":"206239705","REF_FRAME":"TEME","OBJECT_TYPE":"PAYLOAD","EPHEMERIS_TYPE":"0","NORAD_CAT_ID":"50827","ARG_OF_PERICENTER":"43.4879","MEAN_ANOMALY":"316.6299","MEAN_ELEMENT_THEORY":"SGP4","TLE_LINE2":"2 50827  53.2170 167.6679 0002355  43.4879 316.6299 15.08842628 24640","MEAN_MOTION_DDOT":"0.0000000000000","ECCENTRICITY":"0.00023550"},{"SEMIMAJOR_AXIS":"6917.852","CENTER_NAME":"EARTH","OBJECT_NAME":"STARLINK-3290","CLASSIFICATION_TYPE":"U","TIME_SYSTEM":"UTC","LAUNCH_DATE":"2022-01-06","TLE_LINE1":"1 50828U 22001AB  22166.73323397  .00001696  00000-0  12463-3 0  9993","DECAY_DATE":null,"ELEMENT_SET_NO":"999","SITE":"AFETR","RCS_SIZE":"LARGE","MEAN_MOTION_DOT":"0.00001696","REV_AT_EPOCH":"2449","INCLINATION":"53.2173","RA_OF_ASC_NODE":"167.6803","EPHEMERIS_TYPE":"0","NORAD_CAT_ID":"50828","MEAN_ANOMALY":"315.0123","ARG_OF_PERICENTER":"45.1077","MEAN_ELEMENT_THEORY":"SGP4","PERIAPSIS":"537.944","OBJECT_ID":"2022-001AB","GP_ID":"206239956","REF_FRAME":"TEME","OBJECT_TYPE":"PAYLOAD","MEAN_MOTION_DDOT":"0.0000000000000","ECCENTRICITY":"0.00025630","TLE_LINE2":"2 50828  53.2173 167.6803 0002563  45.1077 315.0123 15.08849135 24495","MEAN_MOTION":"15.08849135","EPOCH":"2022-06-15T17:35:51.415008","PERIOD":"95.437","BSTAR":"0.00012463000000","COUNTRY_CODE":"US","FILE":"3496999","APOAPSIS":"541.491"},{"SEMIMAJOR_AXIS":"6917.906","CENTER_NAME":"EARTH","OBJECT_NAME":"STARLINK-3294","CLASSIFICATION_TYPE":"U","TIME_SYSTEM":"UTC","LAUNCH_DATE":"2022-01-06","TLE_LINE1":"1 50829U 22001AC  22167.00828714 -.00000235  00000-0  33282-5 0  9991","ELEMENT_SET_NO":"999","DECAY_DATE":null,"SITE":"AFETR","RCS_SIZE":"LARGE","REV_AT_EPOCH":"2468","MEAN_MOTION_DOT":"-0.00000235","INCLINATION":"53.2166","RA_OF_ASC_NODE":"166.4317","NORAD_CAT_ID":"50829","EPHEMERIS_TYPE":"0","ARG_OF_PERICENTER":"51.0529","MEAN_ANOMALY":"309.0663","MEAN_ELEMENT_THEORY":"SGP4","GP_ID":"206289459","OBJECT_ID":"2022-001AC","PERIAPSIS":"538.216","OBJECT_TYPE":"PAYLOAD","REF_FRAME":"TEME","MEAN_MOTION_DDOT":"0.0000000000000","ECCENTRICITY":"0.00022470","TLE_LINE2":"2 50829  53.2166 166.4317 0002247  51.0529 309.0663 15.08831731 24688","MEAN_MOTION":"15.08831731","PERIOD":"95.438","EPOCH":"2022-06-16T00:11:56.008896","BSTAR":"0.00000332820000","FILE":"3497002","APOAPSIS":"541.325","COUNTRY_CODE":"US"},{"FILE":"3497002","APOAPSIS":"541.017","COUNTRY_CODE":"US","PERIOD":"95.438","EPOCH":"2022-06-16T00:37:05.766816","BSTAR":"-0.00000238910000","MEAN_MOTION":"15.08836024","TLE_LINE2":"2 50830  53.2175 176.3521 0001821  26.8906 333.2181 15.08836024 24553","MEAN_MOTION_DDOT":"0.0000000000000","ECCENTRICITY":"0.00018210","GP_ID":"206290708","PERIAPSIS":"538.498","OBJECT_ID":"2022-001AD","OBJECT_TYPE":"PAYLOAD","REF_FRAME":"TEME","NORAD_CAT_ID":"50830","EPHEMERIS_TYPE":"0","MEAN_ANOMALY":"333.2181","ARG_OF_PERICENTER":"26.8906","MEAN_ELEMENT_THEORY":"SGP4","INCLINATION":"53.2175","RA_OF_ASC_NODE":"176.3521","MEAN_MOTION_DOT":"-0.00000326","REV_AT_EPOCH":"2455","RCS_SIZE":"LARGE","SITE":"AFETR","ELEMENT_SET_NO":"999","DECAY_DATE":null,"TIME_SYSTEM":"UTC","LAUNCH_DATE":"2022-01-06","TLE_LINE1":"1 50830U 22001AD  22167.02576119 -.00000326  00000-0 -23891-5 0  9991","OBJECT_NAME":"STARLINK-3278","CLASSIFICATION_TYPE":"U","SEMIMAJOR_AXIS":"6917.893","CENTER_NAME":"EARTH"},{"PERIOD":"95.437","EPOCH":"2022-06-15T16:48:08.520768","BSTAR":"0.00018478000000","FILE":"3496999","APOAPSIS":"541.259","COUNTRY_CODE":"US","MEAN_MOTION":"15.08852786","MEAN_MOTION_DDOT":"0.0000000000000","ECCENTRICITY":"0.00022440","TLE_LINE2":"2 50831  53.2176 167.8027 0002244  46.8045 313.3135 15.08852786 24648","NORAD_CAT_ID":"50831","EPHEMERIS_TYPE":"0","MEAN_ANOMALY":"313.3135","ARG_OF_PERICENTER":"46.8045","MEAN_ELEMENT_THEORY":"SGP4","GP_ID":"206239206","PERIAPSIS":"538.154","OBJECT_ID":"2022-001AE","OBJECT_TYPE":"PAYLOAD","REF_FRAME":"TEME","REV_AT_EPOCH":"2464","MEAN_MOTION_DOT":"0.00002655","INCLINATION":"53.2176","RA_OF_ASC_NODE":"167.8027","SITE":"AFETR","RCS_SIZE":"LARGE","TIME_SYSTEM":"UTC","LAUNCH_DATE":"2022-01-06","TLE_LINE1":"1 50831U 22001AE  22166.70009862  .00002655  00000-0  18478-3 0  9990","ELEMENT_SET_NO":"999","DECAY_DATE":null,"SEMIMAJOR_AXIS":"6917.841","CENTER_NAME":"EARTH","OBJECT_NAME":"STARLINK-3299","CLASSIFICATION_TYPE":"U"},{"MEAN_MOTION_DOT":"0.00001621","REV_AT_EPOCH":"2455","RA_OF_ASC_NODE":"176.3702","INCLINATION":"53.2179","SITE":"AFETR","RCS_SIZE":"LARGE","TLE_LINE1":"1 50832U 22001AF  22167.02208212  .00001621  00000-0  11989-3 0  9999","LAUNCH_DATE":"2022-01-06","TIME_SYSTEM":"UTC","ELEMENT_SET_NO":"999","DECAY_DATE":null,"CENTER_NAME":"EARTH","SEMIMAJOR_AXIS":"6917.837","CLASSIFICATION_TYPE":"U","OBJECT_NAME":"STARLINK-3328","BSTAR":"0.00011989000000","PERIOD":"95.437","EPOCH":"2022-06-16T00:31:47.895168","FILE":"3497002","APOAPSIS":"541.983","COUNTRY_CODE":"US","MEAN_MOTION":"15.08854146","ECCENTRICITY":"0.00032970","MEAN_MOTION_DDOT":"0.0000000000000","TLE_LINE2":"2 50832  53.2179 176.3702 0003297  39.0360 321.0870 15.08854146 24554","MEAN_ELEMENT_THEORY":"SGP4","MEAN_ANOMALY":"321.0870","ARG_OF_PERICENTER":"39.0360","NORAD_CAT_ID":"50832","EPHEMERIS_TYPE":"0","OBJECT_TYPE":"PAYLOAD","REF_FRAME":"TEME","GP_ID":"206289210","OBJECT_ID":"2022-001AF","PERIAPSIS":"537.421"},{"CLASSIFICATION_TYPE":"U","OBJECT_NAME":"STARLINK-3316","CENTER_NAME":"EARTH","SEMIMAJOR_AXIS":"6917.877","DECAY_DATE":null,"ELEMENT_SET_NO":"999","TLE_LINE1":"1 50833U 22001AG  22166.97146257 -.00000640  00000-0 -21900-4 0  9990","TIME_SYSTEM":"UTC","LAUNCH_DATE":"2022-01-06","RCS_SIZE":"LARGE","SITE":"AFETR","RA_OF_ASC_NODE":"166.5820","INCLINATION":"53.2171","MEAN_MOTION_DOT":"-0.00000640","REV_AT_EPOCH":"2468","REF_FRAME":"TEME","OBJECT_TYPE":"PAYLOAD","OBJECT_ID":"2022-001AG","PERIAPSIS":"533.890","GP_ID":"206289960","MEAN_ANOMALY":"49.1772","ARG_OF_PERICENTER":"310.8486","MEAN_ELEMENT_THEORY":"SGP4","EPHEMERIS_TYPE":"0","NORAD_CAT_ID":"50833","TLE_LINE2":"2 50833  53.2171 166.5820 0008460 310.8486  49.1772 15.08841034 24680","ECCENTRICITY":"0.00084600","MEAN_MOTION_DDOT":"0.0000000000000","MEAN_MOTION":"15.08841034","COUNTRY_CODE":"US","FILE":"3497002","APOAPSIS":"545.595","BSTAR":"-0.00002190000000","EPOCH":"2022-06-15T23:18:54.366048","PERIOD":"95.437"},{"MEAN_MOTION":"15.08840404","BSTAR":"0.00000318220000","EPOCH":"2022-06-15T17:54:22.110336","PERIOD":"95.438","COUNTRY_CODE":"US","APOAPSIS":"541.613","FILE":"3496999","MEAN_ANOMALY":"319.1976","ARG_OF_PERICENTER":"40.9218","MEAN_ELEMENT_THEORY":"SGP4","EPHEMERIS_TYPE":"0","NORAD_CAT_ID":"50834","REF_FRAME":"TEME","OBJECT_TYPE":"PAYLOAD","OBJECT_ID":"2022-001AH","PERIAPSIS":"537.876","GP_ID":"206238455","ECCENTRICITY":"0.00027010","MEAN_MOTION_DDOT":"0.0000000000000","TLE_LINE2":"2 50834  53.2163 177.6235 0002701  40.9218 319.1976 15.08840404 24508","SITE":"AFETR","RCS_SIZE":"LARGE","MEAN_MOTION_DOT":"-0.00000238","REV_AT_EPOCH":"2450","RA_OF_ASC_NODE":"177.6235","INCLINATION":"53.2163","CENTER_NAME":"EARTH","SEMIMAJOR_AXIS":"6917.879","CLASSIFICATION_TYPE":"U","OBJECT_NAME":"STARLINK-3331","TLE_LINE1":"1 50834U 22001AH  22166.74608924 -.00000238  00000-0  31822-5 0  9997","LAUNCH_DATE":"2022-01-06","TIME_SYSTEM":"UTC","DECAY_DATE":null,"ELEMENT_SET_NO":"999"}];
